{"type": "FeatureCollection", "name": "Facilities", "features": [{"type": "Feature", "geometry": {"type": "Polygon", "coordinates": [[[-5.92019024, 54.60390376], [-5.92019899, 54.60390717], [-5.92021006, 54.60389818], [-5.92020548, 54.60389571], [-5.92021069, 54.60389767], [-5.92023886, 54.6038748], [-5.92023077, 54.60387085], [-5.92023952, 54.60387426], [-5.92025059, 54.60386527], [-5.92024601, 54.6038628], [-5.92024705, 54.60386319], [-5.92020404, 54.60384522], [-5.92032047, 54.60375067], [-5.92032899, 54.60375397], [-5.92033484, 54.60374922], [-5.92049183, 54.60381408], [-5.92048992, 54.60381594], [-5.92052403, 54.60383003], [-5.92052895, 54.6038261], [-5.92054208, 54.60383153], [-5.92053938, 54.60383372], [-5.92096324, 54.60400884], [-5.92095755, 54.60401378], [-5.92096575, 54.60401716], [-5.92085613, 54.60410618], [-5.92085984, 54.6041078], [-5.92085029, 54.60411556], [-5.92083691, 54.60411003], [-5.92083959, 54.60410785], [-5.92080157, 54.60409232], [-5.92078836, 54.60410305], [-5.92079317, 54.60410564], [-5.9207877, 54.60410358], [-5.92077667, 54.60411254], [-5.92078474, 54.6041165], [-5.92077599, 54.60411309], [-5.92076134, 54.60412499], [-5.92076615, 54.60412758], [-5.92076068, 54.60412552], [-5.92074965, 54.60413448], [-5.92075773, 54.60413844], [-5.92074897, 54.60413503], [-5.92074876, 54.6041352], [-5.92079606, 54.60415496], [-5.9206798, 54.60424936], [-5.92067129, 54.60424607], [-5.92066526, 54.60425096], [-5.92003674, 54.60399129], [-5.92004277, 54.60398639], [-5.92003461, 54.6039828], [-5.92015087, 54.60388839], [-5.92019827, 54.60390776], [-5.92019833, 54.60390771], [-5.92019024, 54.60390376]]]}, "properties": {"FACILITY_ID": "CQ3", "NAME": "City Quays 3", "NAME_LONG": "City Quays 3, 92 Donegall Quay, Belfast BT1 3FE", "SITE_ID": "CQ", "ELEVATION_RELATIVE": 0, "HEIGHT_RELATIVE": 63.5, "HEIGHT_REPORTED_M": 70.3, "LEVELS": 16}}]}