{"type": "FeatureCollection", "name": "Levels", "features": [{"type": "Feature", "geometry": {"type": "Polygon", "coordinates": [[[-5.92064633, 54.60421776], [-5.9206236, 54.60420837], [-5.92061578, 54.60421441], [-5.92061502, 54.6042141], [-5.92062234, 54.60420785], [-5.92060062, 54.60419888], [-5.9205928, 54.60420492], [-5.92058977, 54.60420367], [-5.92059708, 54.60419742], [-5.92057537, 54.60418845], [-5.92056704, 54.60419428], [-5.92057436, 54.60418803], [-5.92053496, 54.60417175], [-5.92052664, 54.60417758], [-5.92053395, 54.60417134], [-5.92051224, 54.60416236], [-5.92050391, 54.60416819], [-5.92051123, 54.60416195], [-5.9204784, 54.60414838], [-5.92047008, 54.60415421], [-5.92047739, 54.60414797], [-5.92045542, 54.60413889], [-5.9204471, 54.60414472], [-5.92045441, 54.60413847], [-5.92042764, 54.60412741], [-5.9204204, 54.60413237], [-5.92042663, 54.604127], [-5.92041123, 54.60412063], [-5.92040633, 54.60412368], [-5.92041022, 54.60412021], [-5.92028876, 54.60407003], [-5.92028043, 54.60407586], [-5.92028775, 54.60406961], [-5.92026603, 54.60406064], [-5.92025771, 54.60406647], [-5.92026502, 54.60406022], [-5.92021325, 54.60403884], [-5.92020544, 54.60404488], [-5.92020468, 54.60404456], [-5.92021199, 54.60403832], [-5.92019027, 54.60402934], [-5.92018195, 54.60403517], [-5.92018926, 54.60402893], [-5.92009709, 54.60399085], [-5.92016464, 54.603936], [-5.92015685, 54.60393211], [-5.92016536, 54.60393541], [-5.92017761, 54.60392546], [-5.92016982, 54.60392158], [-5.92017833, 54.60392488], [-5.92019904, 54.60390806], [-5.92019024, 54.60390376], [-5.92019976, 54.60390747], [-5.92021075, 54.60389855], [-5.92020548, 54.60389571], [-5.92021147, 54.60389797], [-5.92023957, 54.60387515], [-5.92023077, 54.60387085], [-5.92024029, 54.60387456], [-5.92025128, 54.60386564], [-5.92024601, 54.6038628], [-5.920252, 54.60386506], [-5.92026587, 54.60385379], [-5.92025645, 54.60384968], [-5.92027007, 54.60383832], [-5.92025896, 54.60383373], [-5.92027086, 54.60383798], [-5.92034651, 54.60377655], [-5.92050762, 54.60384311], [-5.92052895, 54.6038261], [-5.92054208, 54.60383153], [-5.9205383, 54.6038346], [-5.92054266, 54.60383663], [-5.9205258, 54.60385062], [-5.92061166, 54.6038861], [-5.92060507, 54.60389176], [-5.92066643, 54.60391711], [-5.92067014, 54.60391534], [-5.92067685, 54.60391391], [-5.92067775, 54.60391318], [-5.92068734, 54.60391715], [-5.92068857, 54.60391677], [-5.9206881, 54.60391746], [-5.92069744, 54.60392132], [-5.92069654, 54.60392205], [-5.92069687, 54.6039255], [-5.92069496, 54.6039289], [-5.92070431, 54.60393276], [-5.92070802, 54.60393098], [-5.92071472, 54.60392956], [-5.92071562, 54.60392883], [-5.92072522, 54.6039328], [-5.92072645, 54.60393242], [-5.92072598, 54.60393311], [-5.92073532, 54.60393697], [-5.92073442, 54.6039377], [-5.92073475, 54.60394115], [-5.92073284, 54.60394455], [-5.92093637, 54.60402864], [-5.92085694, 54.60409314], [-5.9208591, 54.60409448], [-5.92086008, 54.60409709], [-5.92085118, 54.60410401], [-5.92085984, 54.6041078], [-5.92085029, 54.60411556], [-5.92083691, 54.60411003], [-5.92084988, 54.6040995], [-5.9208475, 54.60409741], [-5.92084807, 54.60409478], [-5.92085135, 54.60409304], [-5.92085532, 54.60409292], [-5.92086065, 54.60408828], [-5.9208241, 54.6040734], [-5.9207879, 54.6041028], [-5.92079317, 54.60410564], [-5.92078718, 54.60410338], [-5.92077619, 54.60411231], [-5.92078474, 54.6041165], [-5.92077547, 54.60411289], [-5.92076088, 54.60412474], [-5.92076615, 54.60412758], [-5.92076016, 54.60412532], [-5.92074917, 54.60413425], [-5.92075773, 54.60413844], [-5.92074845, 54.60413483], [-5.92072774, 54.60415165], [-5.92073553, 54.60415553], [-5.92072702, 54.60415224], [-5.92071477, 54.60416218], [-5.92072256, 54.60416606], [-5.92071405, 54.60416277], [-5.92064633, 54.60421776]]]}, "properties": {"LEVEL_ID": "CQ3.L00", "NAME": "Ground Floor", "NAME_SHORT": "00", "LEVEL_NUMBER": 0, "VERTICAL_ORDER": 0, "FACILITY_ID": "CQ3", "ELEVATION_RELATIVE": 0.0, "HEIGHT_RELATIVE": 5.0, "SOURCE_SHEET": "LV 00 - GA", "SOURCE_NOTE": "drawn", "AREA_GROSS_M2": 1274.8}}, {"type": "Feature", "geometry": {"type": "Polygon", "coordinates": [[[-5.92073668, 54.60414501], [-5.92064647, 54.60421826], [-5.92009598, 54.60399082], [-5.92026465, 54.60385386], [-5.92025548, 54.60384985], [-5.92034637, 54.60377605], [-5.92061267, 54.60388607], [-5.92060626, 54.60389159], [-5.92086656, 54.60399913], [-5.92086879, 54.60399763], [-5.9209394, 54.6040268], [-5.92086213, 54.60408955], [-5.92082442, 54.60407397], [-5.92081787, 54.60407908], [-5.92073668, 54.60414501]]]}, "properties": {"LEVEL_ID": "CQ3.L01", "NAME": "Level 01", "NAME_SHORT": "01", "LEVEL_NUMBER": 1, "VERTICAL_ORDER": 1, "FACILITY_ID": "CQ3", "ELEVATION_RELATIVE": 5.0, "HEIGHT_RELATIVE": 3.9, "SOURCE_SHEET": "LV 01 - GA", "SOURCE_NOTE": "drawn", "AREA_GROSS_M2": 1274.0}}, {"type": "Feature", "geometry": {"type": "Polygon", "coordinates": [[[-5.92084922, 54.60411179], [-5.92080157, 54.60409232], [-5.92074876, 54.6041352], [-5.92079606, 54.60415496], [-5.9206798, 54.60424936], [-5.92067129, 54.60424607], [-5.92066526, 54.60425096], [-5.92003674, 54.60399129], [-5.92004277, 54.60398639], [-5.92003461, 54.6039828], [-5.92015087, 54.60388839], [-5.92019827, 54.60390776], [-5.92025108, 54.60386488], [-5.92020404, 54.60384522], [-5.92032047, 54.60375067], [-5.92032899, 54.60375397], [-5.92033484, 54.60374922], [-5.92049183, 54.60381408], [-5.92048992, 54.60381594], [-5.92053219, 54.6038334], [-5.92053445, 54.60383169], [-5.92096324, 54.60400884], [-5.92095755, 54.60401378], [-5.92096575, 54.60401716], [-5.92084922, 54.60411179]]]}, "properties": {"LEVEL_ID": "CQ3.L02", "NAME": "Level 02", "NAME_SHORT": "02", "LEVEL_NUMBER": 2, "VERTICAL_ORDER": 2, "FACILITY_ID": "CQ3", "ELEVATION_RELATIVE": 8.9, "HEIGHT_RELATIVE": 3.9, "SOURCE_SHEET": "LV 04 - GA", "SOURCE_NOTE": "inferred: typical floor, as LV04", "AREA_GROSS_M2": 1644.7}}, {"type": "Feature", "geometry": {"type": "Polygon", "coordinates": [[[-5.92084922, 54.60411179], [-5.92080157, 54.60409232], [-5.92074876, 54.6041352], [-5.92079606, 54.60415496], [-5.9206798, 54.60424936], [-5.92067129, 54.60424607], [-5.92066526, 54.60425096], [-5.92003674, 54.60399129], [-5.92004277, 54.60398639], [-5.92003461, 54.6039828], [-5.92015087, 54.60388839], [-5.92019827, 54.60390776], [-5.92025108, 54.60386488], [-5.92020404, 54.60384522], [-5.92032047, 54.60375067], [-5.92032899, 54.60375397], [-5.92033484, 54.60374922], [-5.92049183, 54.60381408], [-5.92048992, 54.60381594], [-5.92053219, 54.6038334], [-5.92053445, 54.60383169], [-5.92096324, 54.60400884], [-5.92095755, 54.60401378], [-5.92096575, 54.60401716], [-5.92084922, 54.60411179]]]}, "properties": {"LEVEL_ID": "CQ3.L03", "NAME": "Level 03", "NAME_SHORT": "03", "LEVEL_NUMBER": 3, "VERTICAL_ORDER": 3, "FACILITY_ID": "CQ3", "ELEVATION_RELATIVE": 12.8, "HEIGHT_RELATIVE": 3.9, "SOURCE_SHEET": "LV 04 - GA", "SOURCE_NOTE": "inferred: typical floor, as LV04", "AREA_GROSS_M2": 1644.7}}, {"type": "Feature", "geometry": {"type": "Polygon", "coordinates": [[[-5.92084922, 54.60411179], [-5.92080157, 54.60409232], [-5.92074876, 54.6041352], [-5.92079606, 54.60415496], [-5.9206798, 54.60424936], [-5.92067129, 54.60424607], [-5.92066526, 54.60425096], [-5.92003674, 54.60399129], [-5.92004277, 54.60398639], [-5.92003461, 54.6039828], [-5.92015087, 54.60388839], [-5.92019827, 54.60390776], [-5.92025108, 54.60386488], [-5.92020404, 54.60384522], [-5.92032047, 54.60375067], [-5.92032899, 54.60375397], [-5.92033484, 54.60374922], [-5.92049183, 54.60381408], [-5.92048992, 54.60381594], [-5.92053219, 54.6038334], [-5.92053445, 54.60383169], [-5.92096324, 54.60400884], [-5.92095755, 54.60401378], [-5.92096575, 54.60401716], [-5.92084922, 54.60411179]]]}, "properties": {"LEVEL_ID": "CQ3.L04", "NAME": "Level 04", "NAME_SHORT": "04", "LEVEL_NUMBER": 4, "VERTICAL_ORDER": 4, "FACILITY_ID": "CQ3", "ELEVATION_RELATIVE": 16.7, "HEIGHT_RELATIVE": 3.9, "SOURCE_SHEET": "LV 04 - GA", "SOURCE_NOTE": "drawn", "AREA_GROSS_M2": 1644.7}}, {"type": "Feature", "geometry": {"type": "Polygon", "coordinates": [[[-5.92084922, 54.60411179], [-5.92080157, 54.60409232], [-5.92074876, 54.6041352], [-5.92079606, 54.60415496], [-5.9206798, 54.60424936], [-5.92067129, 54.60424607], [-5.92066526, 54.60425096], [-5.92003674, 54.60399129], [-5.92004277, 54.60398639], [-5.92003461, 54.6039828], [-5.92015087, 54.60388839], [-5.92019827, 54.60390776], [-5.92025108, 54.60386488], [-5.92020404, 54.60384522], [-5.92032047, 54.60375067], [-5.92032899, 54.60375397], [-5.92033484, 54.60374922], [-5.92049183, 54.60381408], [-5.92048992, 54.60381594], [-5.92053219, 54.6038334], [-5.92053445, 54.60383169], [-5.92096324, 54.60400884], [-5.92095755, 54.60401378], [-5.92096575, 54.60401716], [-5.92084922, 54.60411179]]]}, "properties": {"LEVEL_ID": "CQ3.L05", "NAME": "Level 05", "NAME_SHORT": "05", "LEVEL_NUMBER": 5, "VERTICAL_ORDER": 5, "FACILITY_ID": "CQ3", "ELEVATION_RELATIVE": 20.6, "HEIGHT_RELATIVE": 3.9, "SOURCE_SHEET": "LV 04 - GA", "SOURCE_NOTE": "inferred: typical floor, as LV04", "AREA_GROSS_M2": 1644.7}}, {"type": "Feature", "geometry": {"type": "Polygon", "coordinates": [[[-5.92084922, 54.60411179], [-5.92080157, 54.60409232], [-5.92074876, 54.6041352], [-5.92079606, 54.60415496], [-5.9206798, 54.60424936], [-5.92067129, 54.60424607], [-5.92066526, 54.60425096], [-5.92003674, 54.60399129], [-5.92004277, 54.60398639], [-5.92003461, 54.6039828], [-5.92015087, 54.60388839], [-5.92019827, 54.60390776], [-5.92025108, 54.60386488], [-5.92020404, 54.60384522], [-5.92032047, 54.60375067], [-5.92032899, 54.60375397], [-5.92033484, 54.60374922], [-5.92049183, 54.60381408], [-5.92048992, 54.60381594], [-5.92053219, 54.6038334], [-5.92053445, 54.60383169], [-5.92096324, 54.60400884], [-5.92095755, 54.60401378], [-5.92096575, 54.60401716], [-5.92084922, 54.60411179]]]}, "properties": {"LEVEL_ID": "CQ3.L06", "NAME": "Level 06", "NAME_SHORT": "06", "LEVEL_NUMBER": 6, "VERTICAL_ORDER": 6, "FACILITY_ID": "CQ3", "ELEVATION_RELATIVE": 24.5, "HEIGHT_RELATIVE": 3.9, "SOURCE_SHEET": "LV 06 - GA", "SOURCE_NOTE": "drawn", "AREA_GROSS_M2": 1644.7}}, {"type": "Feature", "geometry": {"type": "Polygon", "coordinates": [[[-5.92084922, 54.60411179], [-5.92080157, 54.60409232], [-5.92074876, 54.6041352], [-5.92079606, 54.60415496], [-5.9206798, 54.60424936], [-5.92067129, 54.60424607], [-5.92066526, 54.60425096], [-5.92003674, 54.60399129], [-5.92004277, 54.60398639], [-5.92003461, 54.6039828], [-5.92015087, 54.60388839], [-5.92019827, 54.60390776], [-5.92025108, 54.60386488], [-5.92020404, 54.60384522], [-5.92032047, 54.60375067], [-5.92032899, 54.60375397], [-5.92033484, 54.60374922], [-5.92049183, 54.60381408], [-5.92048992, 54.60381594], [-5.92053219, 54.6038334], [-5.92053445, 54.60383169], [-5.92096324, 54.60400884], [-5.92095755, 54.60401378], [-5.92096575, 54.60401716], [-5.92084922, 54.60411179]]]}, "properties": {"LEVEL_ID": "CQ3.L07", "NAME": "Level 07", "NAME_SHORT": "07", "LEVEL_NUMBER": 7, "VERTICAL_ORDER": 7, "FACILITY_ID": "CQ3", "ELEVATION_RELATIVE": 28.4, "HEIGHT_RELATIVE": 3.9, "SOURCE_SHEET": "LV 06 - GA", "SOURCE_NOTE": "inferred: typical floor, as LV06", "AREA_GROSS_M2": 1644.7}}, {"type": "Feature", "geometry": {"type": "Polygon", "coordinates": [[[-5.92084922, 54.60411179], [-5.92080157, 54.60409232], [-5.92074876, 54.6041352], [-5.92079606, 54.60415496], [-5.9206798, 54.60424936], [-5.92067129, 54.60424607], [-5.92066526, 54.60425096], [-5.92003674, 54.60399129], [-5.92004277, 54.60398639], [-5.92003461, 54.6039828], [-5.92015087, 54.60388839], [-5.92019827, 54.60390776], [-5.92025108, 54.60386488], [-5.92020404, 54.60384522], [-5.92032047, 54.60375067], [-5.92032899, 54.60375397], [-5.92033484, 54.60374922], [-5.92049183, 54.60381408], [-5.92048992, 54.60381594], [-5.92053219, 54.6038334], [-5.92053445, 54.60383169], [-5.92096324, 54.60400884], [-5.92095755, 54.60401378], [-5.92096575, 54.60401716], [-5.92084922, 54.60411179]]]}, "properties": {"LEVEL_ID": "CQ3.L08", "NAME": "Level 08", "NAME_SHORT": "08", "LEVEL_NUMBER": 8, "VERTICAL_ORDER": 8, "FACILITY_ID": "CQ3", "ELEVATION_RELATIVE": 32.3, "HEIGHT_RELATIVE": 3.9, "SOURCE_SHEET": "LV 08 - GA", "SOURCE_NOTE": "drawn", "AREA_GROSS_M2": 1644.7}}, {"type": "Feature", "geometry": {"type": "Polygon", "coordinates": [[[-5.92084922, 54.60411179], [-5.92080157, 54.60409232], [-5.92074876, 54.6041352], [-5.92079606, 54.60415496], [-5.9206798, 54.60424936], [-5.92067129, 54.60424607], [-5.92066526, 54.60425096], [-5.92003674, 54.60399129], [-5.92004277, 54.60398639], [-5.92003461, 54.6039828], [-5.92015087, 54.60388839], [-5.92019827, 54.60390776], [-5.92025108, 54.60386488], [-5.92020404, 54.60384522], [-5.92032047, 54.60375067], [-5.92032899, 54.60375397], [-5.92033484, 54.60374922], [-5.92049183, 54.60381408], [-5.92048992, 54.60381594], [-5.92053219, 54.6038334], [-5.92053445, 54.60383169], [-5.92096324, 54.60400884], [-5.92095755, 54.60401378], [-5.92096575, 54.60401716], [-5.92084922, 54.60411179]]]}, "properties": {"LEVEL_ID": "CQ3.L09", "NAME": "Level 09", "NAME_SHORT": "09", "LEVEL_NUMBER": 9, "VERTICAL_ORDER": 9, "FACILITY_ID": "CQ3", "ELEVATION_RELATIVE": 36.2, "HEIGHT_RELATIVE": 3.9, "SOURCE_SHEET": "LV 09 - GA", "SOURCE_NOTE": "drawn", "AREA_GROSS_M2": 1644.7}}, {"type": "Feature", "geometry": {"type": "Polygon", "coordinates": [[[-5.92084922, 54.60411179], [-5.92080157, 54.60409232], [-5.92074876, 54.6041352], [-5.92079606, 54.60415496], [-5.9206798, 54.60424936], [-5.92067129, 54.60424607], [-5.92066526, 54.60425096], [-5.92003674, 54.60399129], [-5.92004277, 54.60398639], [-5.92003461, 54.6039828], [-5.92015087, 54.60388839], [-5.92019827, 54.60390776], [-5.92025108, 54.60386488], [-5.92020404, 54.60384522], [-5.92032047, 54.60375067], [-5.92032899, 54.60375397], [-5.92033484, 54.60374922], [-5.92049183, 54.60381408], [-5.92048992, 54.60381594], [-5.92053219, 54.6038334], [-5.92053445, 54.60383169], [-5.92096324, 54.60400884], [-5.92095755, 54.60401378], [-5.92096575, 54.60401716], [-5.92084922, 54.60411179]]]}, "properties": {"LEVEL_ID": "CQ3.L10", "NAME": "Level 10", "NAME_SHORT": "10", "LEVEL_NUMBER": 10, "VERTICAL_ORDER": 10, "FACILITY_ID": "CQ3", "ELEVATION_RELATIVE": 40.1, "HEIGHT_RELATIVE": 3.9, "SOURCE_SHEET": "LV 09 - GA", "SOURCE_NOTE": "inferred: typical floor, as LV09", "AREA_GROSS_M2": 1644.7}}, {"type": "Feature", "geometry": {"type": "Polygon", "coordinates": [[[-5.9206798, 54.60424936], [-5.92067129, 54.60424607], [-5.92066526, 54.60425096], [-5.92003674, 54.60399129], [-5.92004277, 54.60398639], [-5.92003461, 54.6039828], [-5.92015087, 54.60388839], [-5.92019827, 54.60390776], [-5.92025108, 54.60386488], [-5.92020404, 54.60384522], [-5.92032047, 54.60375067], [-5.92032899, 54.60375397], [-5.92033484, 54.60374922], [-5.92049183, 54.60381408], [-5.92048992, 54.60381594], [-5.92053219, 54.6038334], [-5.92053445, 54.60383169], [-5.9209376, 54.60399825], [-5.92083241, 54.60408367], [-5.92085849, 54.60409445], [-5.92085591, 54.60409636], [-5.92086389, 54.60409987], [-5.92084922, 54.60411179], [-5.92080157, 54.60409232], [-5.92074876, 54.6041352], [-5.92079606, 54.60415496], [-5.9206798, 54.60424936]]]}, "properties": {"LEVEL_ID": "CQ3.L11", "NAME": "Level 11", "NAME_SHORT": "11", "LEVEL_NUMBER": 11, "VERTICAL_ORDER": 11, "FACILITY_ID": "CQ3", "ELEVATION_RELATIVE": 44.0, "HEIGHT_RELATIVE": 3.9, "SOURCE_SHEET": "LV 09 - GA", "SOURCE_NOTE": "inferred: LV09 less the LV11 terrace strip", "AREA_GROSS_M2": 1613.4}}, {"type": "Feature", "geometry": {"type": "Polygon", "coordinates": [[[-5.9206798, 54.60424936], [-5.92067129, 54.60424607], [-5.92066526, 54.60425096], [-5.92003674, 54.60399129], [-5.92004277, 54.60398639], [-5.92003461, 54.6039828], [-5.92015087, 54.60388839], [-5.92019827, 54.60390776], [-5.92025108, 54.60386488], [-5.92020404, 54.60384522], [-5.92032047, 54.60375067], [-5.92032899, 54.60375397], [-5.92033484, 54.60374922], [-5.92049183, 54.60381408], [-5.92048992, 54.60381594], [-5.92053219, 54.6038334], [-5.92053445, 54.60383169], [-5.9209376, 54.60399825], [-5.92083241, 54.60408367], [-5.92085849, 54.60409445], [-5.92085591, 54.60409636], [-5.92086389, 54.60409987], [-5.92084922, 54.60411179], [-5.92080157, 54.60409232], [-5.92074876, 54.6041352], [-5.92079606, 54.60415496], [-5.9206798, 54.60424936]]]}, "properties": {"LEVEL_ID": "CQ3.L12", "NAME": "Level 12", "NAME_SHORT": "12", "LEVEL_NUMBER": 12, "VERTICAL_ORDER": 12, "FACILITY_ID": "CQ3", "ELEVATION_RELATIVE": 47.9, "HEIGHT_RELATIVE": 3.9, "SOURCE_SHEET": "LV 09 - GA", "SOURCE_NOTE": "inferred: LV09 less the LV11 terrace strip", "AREA_GROSS_M2": 1613.4}}, {"type": "Feature", "geometry": {"type": "Polygon", "coordinates": [[[-5.92065194, 54.60411636], [-5.9206474, 54.60411449], [-5.92063492, 54.60412462], [-5.92063574, 54.60412517], [-5.92059592, 54.60415785], [-5.92059244, 54.60415664], [-5.92059008, 54.60415855], [-5.92042179, 54.60408903], [-5.92042161, 54.60408917], [-5.92038006, 54.604072], [-5.92038024, 54.60407186], [-5.92021259, 54.60400259], [-5.92021468, 54.60400059], [-5.92021087, 54.60399901], [-5.92024933, 54.60396778], [-5.92025299, 54.60396697], [-5.92026559, 54.60395674], [-5.92026054, 54.60395465], [-5.92025766, 54.60395699], [-5.92021144, 54.6039379], [-5.9202844, 54.60387865], [-5.92020403, 54.60384523], [-5.9203265, 54.60374577], [-5.92093381, 54.60399669], [-5.92081136, 54.60409612], [-5.92076833, 54.60407878], [-5.92069553, 54.6041379], [-5.92064906, 54.6041187], [-5.92065194, 54.60411636]]]}, "properties": {"LEVEL_ID": "CQ3.L13", "NAME": "Level 13", "NAME_SHORT": "13", "LEVEL_NUMBER": 13, "VERTICAL_ORDER": 13, "FACILITY_ID": "CQ3", "ELEVATION_RELATIVE": 51.8, "HEIGHT_RELATIVE": 3.9, "SOURCE_SHEET": "LV 13 - GA", "SOURCE_NOTE": "drawn", "AREA_GROSS_M2": 1142.3}}, {"type": "Feature", "geometry": {"type": "Polygon", "coordinates": [[[-5.92065194, 54.60411636], [-5.92063705, 54.60411021], [-5.92063687, 54.60411035], [-5.92059166, 54.60409168], [-5.92059184, 54.60409153], [-5.92057089, 54.60408287], [-5.92057017, 54.60408345], [-5.92056209, 54.60408013], [-5.92056318, 54.60407925], [-5.92051468, 54.60405921], [-5.92051432, 54.6040595], [-5.92047897, 54.6040449], [-5.92047879, 54.60404504], [-5.92043409, 54.60402658], [-5.92043427, 54.60402643], [-5.92039841, 54.60401162], [-5.92039877, 54.60401132], [-5.92034928, 54.60399087], [-5.92034892, 54.60399117], [-5.9203214, 54.60397979], [-5.92032122, 54.60397994], [-5.92027601, 54.60396127], [-5.92027619, 54.60396112], [-5.92026054, 54.60395465], [-5.92025766, 54.60395699], [-5.92021144, 54.6039379], [-5.9202844, 54.60387865], [-5.92020403, 54.60384523], [-5.9203265, 54.60374577], [-5.92093381, 54.60399669], [-5.92081135, 54.60409613], [-5.92076849, 54.60407865], [-5.92069553, 54.6041379], [-5.92064906, 54.6041187], [-5.92065194, 54.60411636]]]}, "properties": {"LEVEL_ID": "CQ3.L14", "NAME": "Level 14", "NAME_SHORT": "14", "LEVEL_NUMBER": 14, "VERTICAL_ORDER": 14, "FACILITY_ID": "CQ3", "ELEVATION_RELATIVE": 55.7, "HEIGHT_RELATIVE": 3.9, "SOURCE_SHEET": "LV 14 - GA", "SOURCE_NOTE": "drawn", "AREA_GROSS_M2": 955.6}}, {"type": "Feature", "geometry": {"type": "Polygon", "coordinates": [[[-5.92065194, 54.60411636], [-5.92063705, 54.60411021], [-5.92063687, 54.60411035], [-5.92059166, 54.60409168], [-5.92059184, 54.60409153], [-5.92057089, 54.60408287], [-5.92057017, 54.60408345], [-5.92056209, 54.60408013], [-5.92056318, 54.60407925], [-5.92051468, 54.60405921], [-5.92051432, 54.6040595], [-5.92047897, 54.6040449], [-5.92047879, 54.60404504], [-5.92043409, 54.60402658], [-5.92043427, 54.60402643], [-5.92039841, 54.60401162], [-5.92039877, 54.60401132], [-5.92034928, 54.60399087], [-5.92034892, 54.60399117], [-5.9203214, 54.60397979], [-5.92032122, 54.60397994], [-5.92027601, 54.60396127], [-5.92027619, 54.60396112], [-5.92026054, 54.60395465], [-5.92025766, 54.60395699], [-5.92021144, 54.6039379], [-5.9202844, 54.60387865], [-5.92020403, 54.60384523], [-5.9203265, 54.60374577], [-5.92093381, 54.60399669], [-5.92081135, 54.60409613], [-5.92076849, 54.60407865], [-5.92069553, 54.6041379], [-5.92064906, 54.6041187], [-5.92065194, 54.60411636]]]}, "properties": {"LEVEL_ID": "CQ3.L15", "NAME": "Level 15", "NAME_SHORT": "15", "LEVEL_NUMBER": 15, "VERTICAL_ORDER": 15, "FACILITY_ID": "CQ3", "ELEVATION_RELATIVE": 59.6, "HEIGHT_RELATIVE": 3.9, "SOURCE_SHEET": "LV 15 - GA", "SOURCE_NOTE": "drawn", "AREA_GROSS_M2": 955.6}}]}