{"type": "FeatureCollection", "name": "Sites", "features": [{"type": "Feature", "geometry": {"type": "Polygon", "coordinates": [[[-5.92247249, 54.60468538], [-5.92247348, 54.60468586], [-5.92213494, 54.60494526], [-5.92089405, 54.60446212], [-5.92077702, 54.60455715], [-5.92076851, 54.60455386], [-5.92075576, 54.60456421], [-5.91949593, 54.6040437], [-5.91950868, 54.60403335], [-5.91950053, 54.60402976], [-5.9196328, 54.60392236], [-5.91848212, 54.60334945], [-5.91851323, 54.60332581], [-5.91851258, 54.6033255], [-5.91885425, 54.60306329], [-5.92009488, 54.60354712], [-5.92022325, 54.60344288], [-5.92023177, 54.60344618], [-5.92024434, 54.60343597], [-5.9204384, 54.60351615], [-5.92044113, 54.60351397], [-5.92108288, 54.60377911], [-5.92108018, 54.6037813], [-5.92149462, 54.60395253], [-5.92148893, 54.60395746], [-5.92150655, 54.60396474], [-5.92139059, 54.60405891], [-5.9213943, 54.60406053], [-5.92134819, 54.60409798], [-5.92136143, 54.60410511], [-5.92250049, 54.60466392], [-5.92247249, 54.60468538]]]}, "properties": {"SITE_ID": "CQ", "NAME": "City Quays", "NAME_LONG": "City Quays, Belfast Harbour"}}]}